[{"OBJECT_NAME":"GAOFEN-12 05","OBJECT_ID":"2024-186A","EPOCH":"2026-03-10T00:24:03.082176","MEAN_MOTION":14.80867025,"ECCENTRICITY":8.035e-5,"INCLINATION":97.9136,"RA_OF_ASC_NODE":78.47,"ARG_OF_PERICENTER":119.8507,"MEAN_ANOMALY":240.2785,"EPHEMERIS_TYPE":0,"CLASSIFICATION_TYPE":"U","NORAD_CAT_ID":61571,"ELEMENT_SET_NO":999,"REV_AT_EPOCH":7466,"BSTAR":8.8744173e-5,"MEAN_MOTION_DOT":6.33e-6,"MEAN_MOTION_DDOT":0},{"OBJECT_NAME":"CZ-6A DEB","OBJECT_ID":"2022-151VV","EPOCH":"2026-03-08T17:43:15.672576","MEAN_MOTION":14.82427475,"ECCENTRICITY":0.00668974,"INCLINATION":98.6186,"RA_OF_ASC_NODE":135.292,"ARG_OF_PERICENTER":209.1014,"MEAN_ANOMALY":150.6462,"EPHEMERIS_TYPE":0,"CLASSIFICATION_TYPE":"U","NORAD_CAT_ID":55204,"ELEMENT_SET_NO":999,"REV_AT_EPOCH":17094,"BSTAR":0.0050164645,"MEAN_MOTION_DOT":0.00041979,"MEAN_MOTION_DDOT":0}]
